OBJECT_NAME,OBJECT_ID,EPOCH,MEAN_MOTION,ECCENTRICITY,INCLINATION,RA_OF_ASC_NODE,ARG_OF_PERICENTER,MEAN_ANOMALY,EPHEMERIS_TYPE,CLASSIFICATION_TYPE,NORAD_CAT_ID,ELEMENT_SET_NO,REV_AT_EPOCH,BSTAR,MEAN_MOTION_DOT,MEAN_MOTION_DDOT
ONEWEB-0132,2020-100W,2026-06-27T04:51:22.076640,13.12443167,.0001742,87.8944,348.6796,93.5742,266.5585,0,U,47278,999,26589,-.15029E-2,-.528E-5,0
ONEWEB-0133,2020-100X,2026-06-26T23:46:14.352096,13.12442939,.0001661,87.8955,348.6989,94.0507,266.0812,0,U,47279,999,26602,.80788E-3,.303E-5,0
ONEWEB-0134,2020-100Y,2026-06-27T04:31:50.827872,13.12441184,.0001813,87.8956,348.6566,101.3367,258.7965,0,U,47280,999,26602,-.12405E-2,-.434E-5,0
ONEWEB-0135,2020-100Z,2026-06-27T00:10:50.002752,13.12441489,.0001673,87.8943,348.7142,101.8857,258.2459,0,U,47281,999,26602,.10187E-2,.379E-5,0
ONEWEB-0136,2020-100AA,2026-06-27T04:17:13.199136,13.12440926,.0001826,87.8951,348.6624,103.1432,256.9901,0,U,47282,999,26597,-.48056E-3,-.16E-5,0
ONEWEB-0137,2020-100AB,2026-06-26T23:36:40.732128,13.12443500,.0001925,87.8955,348.7115,89.2084,270.9265,0,U,47283,999,26585,-.35382E-4,0,0
ONEWEB-0138,2020-100AC,2026-06-27T04:34:17.262912,13.12455268,.0001573,87.8952,348.6754,96.9525,263.1783,0,U,47284,999,26596,-.90946E-2,-.3258E-4,0
ONEWEB-0139,2020-100AD,2026-06-27T00:03:43.319808,13.12441236,.0001851,87.8951,348.6992,94.0706,266.0634,0,U,47285,999,26601,.10814E-2,.402E-5,0
ONEWEB-0140,2020-100AE,2026-06-27T04:26:58.591104,13.12440609,.0001656,87.8952,348.6538,92.5957,267.5362,0,U,47286,999,26600,-.10994E-2,-.383E-5,0
ONEWEB-0141,2020-100AF,2026-06-27T00:03:19.154592,13.12442057,.0002066,87.8951,348.6952,87.4087,272.7278,0,U,47287,999,26596,.11111E-2,.412E-5,0
ONEWEB-0142,2020-100AG,2026-06-26T23:46:39.573120,13.12444294,.0002232,87.8946,348.7185,94.7949,265.3434,0,U,47288,999,26595,.71733E-3,.271E-5,0
ONEWEB-0143,2020-100AH,2026-06-27T00:01:04.810368,13.12442071,.0001843,87.8951,348.7157,91.7342,268.3998,0,U,47289,999,26593,.1129E-2,.419E-5,0
ONEWEB-0144,2020-100AJ,2026-06-27T04:48:55.944864,13.12445131,.0002039,87.8956,348.6503,102.1779,257.9578,0,U,47290,999,26588,-.97435E-3,-.338E-5,0
ONEWEB-0145,2020-100AK,2026-06-27T00:27:54.387936,13.12440254,.0001916,87.8946,348.7132,94.7632,265.3716,0,U,47291,999,26605,-.27216E-4,.3E-7,0
ONEWEB-0146,2020-100AL,2026-06-27T04:02:35.717280,13.12440773,.0001542,87.8953,348.6759,85.4515,274.6789,0,U,47292,999,26598,.51823E-3,.199E-5,0
ONEWEB-0147,2020-100AM,2026-06-26T23:34:14.380032,13.12443254,.0001715,87.8953,348.6949,96.4902,263.6421,0,U,47293,999,26585,-.70752E-4,-.13E-6,0
ONEWEB-0115,2021-025A,2026-06-27T01:53:29.050944,13.13470028,.0001763,87.8966,318.2539,97.6312,262.5017,0,U,48042,999,25489,.69672E-3,.267E-5,0
ONEWEB-0152,2021-025B,2026-06-27T02:12:58.324608,13.13470024,.0001735,87.8973,318.2485,96.4021,263.7306,0,U,48043,999,25485,-.28478E-3,-.91E-6,0
ONEWEB-0153,2021-025C,2026-06-26T22:01:53.306976,13.13471025,.0001939,87.8962,318.2854,98.8499,261.2850,0,U,48044,999,25482,.75449E-3,.288E-5,0
ONEWEB-0154,2021-025D,2026-06-27T03:26:06.133920,13.13468812,.0001707,87.8968,318.2387,102.9340,257.1980,0,U,48045,999,25481,.1E-2,.378E-5,0
ONEWEB-0116,2021-025E,2026-06-27T02:32:29.722848,13.13468709,.0002347,87.8940,318.2422,92.9067,267.2331,0,U,48046,999,25495,.97618E-3,.369E-5,0
ONEWEB-0150,2021-025F,2026-06-27T01:58:21.182304,13.13469958,.0001985,87.8972,318.2452,93.2716,266.8640,0,U,48047,999,25484,.47119E-3,.185E-5,0
ONEWEB-0107,2021-025G,2026-06-27T02:00:47.378880,13.13470508,.000211,87.8971,318.2406,101.2760,258.8606,0,U,48048,999,25482,.49757E-3,.194E-5,0
ONEWEB-0101,2021-025H,2026-06-26T21:27:46.350144,13.13471004,.000165,87.8956,318.2919,100.9526,259.1789,0,U,48049,999,25477,.90238E-3,.342E-5,0
ONEWEB-0113,2021-025J,2026-06-27T03:27:19.178208,13.13892412,.0001828,87.8965,318.1528,94.0718,266.0621,0,U,48050,999,25491,.80367E-3,.308E-5,0
ONEWEB-0112,2021-025K,2026-06-27T02:08:05.714592,13.13471121,.0001943,87.8971,318.2377,105.8424,254.2920,0,U,48051,999,25489,.31869E-3,.129E-5,0
ONEWEB-0156,2021-025L,2026-06-27T02:20:18.538656,13.13452722,.0002022,87.8974,318.2453,96.8167,263.3192,0,U,48052,999,25487,-.65758E-2,-.2387E-4,0
ONEWEB-0161,2021-025M,2026-06-26T22:04:19.386048,13.13470793,.0002062,87.8969,318.2824,99.1872,260.9490,0,U,48053,999,25478,.75278E-3,.288E-5,0
ONEWEB-0158,2021-025N,2026-06-27T02:34:53.770656,13.13471853,.0001651,87.8971,318.2427,101.5358,258.5957,0,U,48054,999,25493,-.92081E-3,-.324E-5,0
ONEWEB-0157,2021-025P,2026-06-27T03:11:29.610240,13.13470494,.0002225,87.8967,318.2429,103.3016,256.8361,0,U,48055,999,25487,.30078E-3,.123E-5,0
